{
  "norad_id": 60026,
  "name": "STARLINK-31939",
  "history": [
    {
      "epoch": "2026-03-28T21:01:58.585728Z",
      "apogee_km": 476.10301211831484,
      "perigee_km": 474.4025490459562,
      "latitude_deg": -4.9864882673630024e-05,
      "longitude_deg": -155.46387244110477,
      "height_km": 476.30289662734975,
      "semi_major_axis_km": 6853.389780582135,
      "eccentricity": 0.00012406,
      "inclination_deg": 53.1595,
      "raan_deg": 346.3208,
      "arg_perigee_deg": 100.3003,
      "mean_anomaly_deg": 259.8137,
      "mean_motion_rev_day": 15.3018737
    },
    {
      "epoch": "2026-03-29T03:18:11.454048Z",
      "apogee_km": 475.9704636914148,
      "perigee_km": 474.50110056692665,
      "latitude_deg": 7.072453536662632e-06,
      "longitude_deg": 109.01274234628352,
      "height_km": 476.4204681769038,
      "semi_major_axis_km": 6853.37278212917,
      "eccentricity": 0.0001072,
      "inclination_deg": 53.1593,
      "raan_deg": 345.1085,
      "arg_perigee_deg": 112.9365,
      "mean_anomaly_deg": 247.1749,
      "mean_motion_rev_day": 15.30193063
    },
    {
      "epoch": "2026-03-30T02:49:00.000768Z",
      "apogee_km": 475.9168087504722,
      "perigee_km": 474.55846989695874,
      "latitude_deg": 1.5078210799374877e-05,
      "longitude_deg": 110.79320636026172,
      "height_km": 475.9960429267328,
      "semi_major_axis_km": 6853.374639323715,
      "eccentricity": 9.91e-05,
      "inclination_deg": 53.1614,
      "raan_deg": 340.5569,
      "arg_perigee_deg": 78.0847,
      "mean_anomaly_deg": 282.0265,
      "mean_motion_rev_day": 15.30192441
    },
    {
      "epoch": "2026-03-30T02:49:00.001632Z",
      "apogee_km": 475.9166031492341,
      "perigee_km": 474.5586754981978,
      "latitude_deg": 1.7782471481803408e-05,
      "longitude_deg": 110.79320476509173,
      "height_km": 475.9960853761666,
      "semi_major_axis_km": 6853.374639323715,
      "eccentricity": 9.907e-05,
      "inclination_deg": 53.1614,
      "raan_deg": 340.5569,
      "arg_perigee_deg": 78.0847,
      "mean_anomaly_deg": 282.0265,
      "mean_motion_rev_day": 15.30192441
    },
    {
      "epoch": "2026-03-30T23:11:41.130528Z",
      "apogee_km": 475.93548312232724,
      "perigee_km": 474.54849628239026,
      "latitude_deg": 1.0103157458452621e-05,
      "longitude_deg": 160.34113115088513,
      "height_km": 475.96513162699364,
      "semi_major_axis_km": 6853.378989702358,
      "eccentricity": 0.00010119,
      "inclination_deg": 53.1618,
      "raan_deg": 336.6131,
      "arg_perigee_deg": 75.3394,
      "mean_anomaly_deg": 284.7719,
      "mean_motion_rev_day": 15.30190984
    },
    {
      "epoch": "2026-03-31T21:08:26.412864Z",
      "apogee_km": 475.9857215629254,
      "perigee_km": 474.5122435766725,
      "latitude_deg": -3.069072364804363e-05,
      "longitude_deg": -173.99736093566034,
      "height_km": 475.89490087041315,
      "semi_major_axis_km": 6853.385982569799,
      "eccentricity": 0.0001075,
      "inclination_deg": 53.161,
      "raan_deg": 332.3646,
      "arg_perigee_deg": 69.9469,
      "mean_anomaly_deg": 290.1647,
      "mean_motion_rev_day": 15.30188642
    },
    {
      "epoch": "2026-04-01T01:50:35.313504Z",
      "apogee_km": 475.9795321810634,
      "perigee_km": 474.48207131638264,
      "latitude_deg": 1.3577862175854936e-05,
      "longitude_deg": 114.36216262798587,
      "height_km": 475.86561846386576,
      "semi_major_axis_km": 6853.367801748723,
      "eccentricity": 0.00010925,
      "inclination_deg": 53.1608,
      "raan_deg": 331.4543,
      "arg_perigee_deg": 69.3799,
      "mean_anomaly_deg": 290.7319,
      "mean_motion_rev_day": 15.30194731
    }
  ]
}